NORAD_CAT_ID,OBJECT_NAME,OBJECT_TYPE,EPOCH,MEAN_MOTION,ECCENTRICITY,INCLINATION,RA_OF_ASC_NODE,ARG_OF_PERICENTER,MEAN_ANOMALY,BSTAR,MEAN_MOTION_DOT,MEAN_MOTION_DDOT,TLE_LINE0,TLE_LINE1,TLE_LINE2,SEMIMAJOR_AXIS,PERIOD,APOGEE,PERIGEE,DECAYED
52702.0,STARLINK-4033,PAYLOAD,2022-11-22 19:02:11,15.08809578,0.0002346,53.2161,149.1381,51.9722,308.1481,0.0011739,0.00018429,0.0,0 STARLINK-4033,1 52702U 22053AY  22326.79318736  .00018429  00000-0  11739-2 0  9994,2 52702  53.2161 149.1381 0002346  51.9722 308.1481 15.08809578 29494,6917.973000000001,95.439,541.461,538.215,0.0
52702.0,STARLINK-4033,PAYLOAD,2022-11-22 23:48:18,15.08846202,0.000218,53.2159,148.2455,52.538,307.581,-6.5272e-05,-1.327e-05,0.0,0 STARLINK-4033,1 52702U 22053AY  22326.99188511 -.00001327  00000-0 -65272-4 0  9996,2 52702  53.2159 148.2455 0002180  52.5380 307.5810 15.08846202 29119,6917.861,95.437,541.235,538.2180000000002,0.0
52702.0,STARLINK-4033,PAYLOAD,2022-11-23 12:31:25,15.08828289,0.000222,53.2158,145.8666,51.5294,308.5897,-4.895e-05,-1.067e-05,0.0,0 STARLINK-4033,1 52702U 22053AY  22327.52181738 -.00001067  00000-0 -48950-4 0  9995,2 52702  53.2158 145.8666 0002220  51.5294 308.5897 15.08828289 29192,6917.916,95.438,541.317,538.245,0.0
52702.0,STARLINK-4033,PAYLOAD,2022-11-23 20:28:20,15.08830571,0.0002139,53.2177,144.3805,48.9844,311.1333,1.4846e-05,-5.2e-07,0.0,0 STARLINK-4033,1 52702U 22053AY  22327.85302040 -.00000052  00000-0  14846-4 0  9991,2 52702  53.2177 144.3805 0002139  48.9844 311.1333 15.08830571 29655,6917.909000000002,95.438,541.254,538.294,0.0
52702.0,STARLINK-4033,PAYLOAD,2022-11-24 04:25:16,15.08832404,0.0002158,53.2178,142.8938,49.2803,310.8376,2.6869e-05,1.39e-06,0.0,0 STARLINK-4033,1 52702U 22053AY  22328.18422132  .00000139  00000-0  26869-4 0  9996,2 52702  53.2178 142.8938 0002158  49.2803 310.8376 15.08832404 29702,6917.904,95.438,541.261,538.276,0.0
52702.0,STARLINK-4033,PAYLOAD,2022-11-24 18:43:45,15.08836026,0.0002199,53.2179,140.2176,49.1813,310.9369,1.6606e-05,-2.4e-07,0.0,0 STARLINK-4033,1 52702U 22053AY  22328.78038245 -.00000024  00000-0  16606-4 0  9992,2 52702  53.2179 140.2176 0002199  49.1813 310.9369 15.08836026 29385,6917.893,95.438,541.279,538.236,0.0
52702.0,STARLINK-4033,PAYLOAD,2022-11-24 20:19:08,15.08835721,0.0002206,53.2179,139.9202,49.5276,310.5908,1.3399000000000003e-05,-7.5e-07,0.0,0 STARLINK-4033,1 52702U 22053AY  22328.84662262 -.00000075  00000-0  13399-4 0  9993,2 52702  53.2179 139.9202 0002206  49.5276 310.5908 15.08835721 29809,6917.893,95.438,541.285,538.232,0.0
52702.0,STARLINK-4033,PAYLOAD,2022-11-25 12:12:59,15.08833208,0.0002195,53.2179,136.9465,50.8366,309.2821,0.0001584,2.233e-05,0.0,0 STARLINK-4033,1 52702U 22053AY  22329.50902554  .00002233  00000-0  15840-3 0  9997,2 52702  53.2179 136.9465 0002195  50.8366 309.2821 15.08833208 29907,6917.901,95.438,541.285,538.248,0.0
52702.0,STARLINK-4033,PAYLOAD,2022-11-25 18:34:32,15.08837417,0.0002201,53.218,135.7571,51.36600000000001,308.7529,0.00017032,2.423e-05,0.0,0 STARLINK-4033,1 52702U 22053AY  22329.77398440  .00002423  00000-0  17032-3 0  9995,2 52702  53.2180 135.7571 0002201  51.3660 308.7529 15.08837417 29944,6917.888000000001,95.438,541.276,538.231,0.0
52702.0,STARLINK-4033,PAYLOAD,2022-11-25 23:20:41,15.08839345,0.0002254,53.217,134.8648,50.9607,309.1585,0.00017688,2.528e-05,0.0,0 STARLINK-4033,1 52702U 22053AY  22329.97270414  .00002528  00000-0  17688-3 0  9990,2 52702  53.2170 134.8648 0002254  50.9607 309.1585 15.08839345 29569,6917.882,95.438,541.307,538.188,0.0
52702.0,STARLINK-4033,PAYLOAD,2022-11-26 10:28:23,15.08844768,0.0002241,53.217,132.7831,51.9231,308.1963,0.00021536,3.141e-05,0.0,0 STARLINK-4033,1 52702U 22053AY  22330.43638188  .00003141  00000-0  21536-3 0  9998,2 52702  53.2170 132.7831 0002241  51.9231 308.1963 15.08844768 30049,6917.866,95.437,541.281,538.181,0.0
52702.0,STARLINK-4033,PAYLOAD,2022-11-26 20:00:41,15.08849174,0.0002259,53.2171,130.9989,52.4391,307.6806,0.00023723,3.4899999999999995e-05,0.0,0 STARLINK-4033,1 52702U 22053AY  22330.83381914  .00003490  00000-0  23723-3 0  9991,2 52702  53.2171 130.9989 0002259  52.4391 307.6806 15.08849174 30109,6917.852,95.437,541.28,538.155,0.0
52702.0,STARLINK-4033,PAYLOAD,2022-11-27 05:33:00,15.08853904,0.0002255,53.2169,129.2148,52.8125,307.3073,0.00026931,4.002e-05,0.0,0 STARLINK-4033,1 52702U 22053AY  22331.23125516  .00004002  00000-0  26931-3 0  9994,2 52702  53.2169 129.2148 0002255  52.8125 307.3073 15.08853904 29757,6917.8380000000025,95.437,541.263,538.143,0.0
52702.0,STARLINK-4033,PAYLOAD,2022-11-27 16:40:42,15.0884519,0.0002278,53.2167,127.1331,53.1247,306.9954,5.7017e-05,6.19e-06,0.0,0 STARLINK-4033,1 52702U 22053AY  22331.69493702  .00000619  00000-0  57017-4 0  9999,2 52702  53.2167 127.1331 0002278  53.1247 306.9954 15.08845190 29829,6917.865,95.437,541.305,538.154,0.0
52702.0,STARLINK-4033,PAYLOAD,2022-11-27 19:51:29,15.08842883,0.0002229,53.2171,126.5384,53.4824,306.6373,5.023600000000001e-05,5.11e-06,0.0,0 STARLINK-4033,1 52702U 22053AY  22331.82741924  .00000511  00000-0  50236-4 0  9993,2 52702  53.2171 126.5384 0002229  53.4824 306.6373 15.08842883 30252,6917.871999999999,95.437,541.279,538.195,0.0
52702.0,STARLINK-4033,PAYLOAD,2022-11-28 16:31:29,15.08851453,0.0002245,53.2171,122.6729,53.5716,306.5483,0.00014359,1.998e-05,0.0,0 STARLINK-4033,1 52702U 22053AY  22332.68853203  .00001998  00000-0  14359-3 0  9997,2 52702  53.2171 122.6729 0002245  53.5716 306.5483 15.08851453 30389,6917.845,95.437,541.263,538.1569999999998,0.0
52702.0,STARLINK-4033,PAYLOAD,2022-11-28 21:17:39,15.08840444,0.0002305,53.2172,121.781,51.8945,308.2254,-2.5594e-05,-6.96e-06,0.0,0 STARLINK-4033,1 52702U 22053AY  22332.88725723 -.00000696  00000-0 -25594-4 0  9994,2 52702  53.2172 121.7810 0002305  51.8945 308.2254 15.08840444 30005,6917.879,95.438,541.339,538.149,0.0
52702.0,STARLINK-4033,PAYLOAD,2022-11-29 06:49:57,15.08840816,0.0002316,53.2171,119.9971,49.3412,310.7781,1.167e-05,-1.03e-06,0.0,0 STARLINK-4033,1 52702U 22053AY  22333.28469735 -.00000103  00000-0  11670-4 0  9999,2 52702  53.2171 119.9971 0002316  49.3412 310.7781 15.08840816 30471,6917.878000000002,95.438,541.345,538.141,0.0
52702.0,STARLINK-4033,PAYLOAD,2022-11-29 19:33:02,15.08844681,0.0002269,53.217,117.6178,52.3319,307.7879,0.00016091,2.274e-05,0.0,0 STARLINK-4033,1 52702U 22053AY  22333.81461569  .00002274  00000-0  16091-3 0  9996,2 52702  53.2170 117.6178 0002269  52.3319 307.7879 15.08844681 30558,6917.866,95.437,541.3009999999998,538.161,0.0
52702.0,STARLINK-4033,PAYLOAD,2022-11-30 09:51:31,15.08839508,0.0002304,53.2168,114.941,57.1059,303.0154,1.8485e-05,6e-08,0.0,0 STARLINK-4033,1 52702U 22053AY  22334.41077829  .00000006  00000-0  18485-4 0  9996,2 52702  53.2168 114.9410 0002304  57.1059 303.0154 15.08839508 30230,6917.882,95.438,541.341,538.153,0.0
52702.0,STARLINK-4033,PAYLOAD,2022-11-30 13:02:17,15.08839047,0.0002277,53.2168,114.3466,54.315,305.8054,9.2139e-07,-2.74e-06,0.0,0 STARLINK-4033,1 52702U 22053AY  22334.54325855 -.00000274  00000-0  92139-6 0  9993,2 52702  53.2168 114.3466 0002277  54.3150 305.8054 15.08839047 30669,6917.8830000000025,95.438,541.3240000000002,538.173,0.0
52702.0,STARLINK-4033,PAYLOAD,2022-11-30 17:48:26,15.08840958,0.0002201,53.2184,113.4552,52.2753,307.8438,9.8736e-06,-1.31e-06,0.0,0 STARLINK-4033,1 52702U 22053AY  22334.74197866 -.00000131  00000-0  98736-5 0  9994,2 52702  53.2184 113.4552 0002201  52.2753 307.8438 15.08840958 30690,6917.877,95.437,541.265,538.22,0.0
52702.0,STARLINK-4033,PAYLOAD,2022-12-01 12:53:04,15.0883456,0.0002114,53.2184,109.8869,52.0662,308.0521,3.9515e-05,3.41e-06,0.0,0 STARLINK-4033,1 52702U 22053AY  22335.53686313  .00000341  00000-0  39515-4 0  9993,2 52702  53.2184 109.8869 0002114  52.0662 308.0521 15.08834560 30812,6917.897,95.438,541.224,538.3,0.0
52702.0,STARLINK-4033,PAYLOAD,2022-12-01 17:39:14,15.08835429,0.0002143,53.2184,108.9949,50.6006,309.5175,3.3683e-05,2.48e-06,0.0,0 STARLINK-4033,1 52702U 22053AY  22335.73558307  .00000248  00000-0  33683-4 0  9992,2 52702  53.2184 108.9949 0002143  50.6006 309.5175 15.08835429 30433,6917.894,95.438,541.242,538.2769999999998,0.0
52702.0,STARLINK-4033,PAYLOAD,2022-12-01 19:14:37,15.08837014,0.0002174,53.2185,108.6975,50.4542,309.6642,2.0856e-05,4.4e-07,0.0,0 STARLINK-4033,1 52702U 22053AY  22335.80182242  .00000044  00000-0  20856-4 0  9993,2 52702  53.2185 108.6975 0002174  50.4542 309.6642 15.08837014 30855,6917.89,95.438,541.258,538.251,0.0
52702.0,STARLINK-4033,PAYLOAD,2022-12-02 11:08:29,15.08833014,0.0002122,53.2185,105.7242,48.5178,311.5997,5.099399999999999e-05,5.23e-06,0.0,0 STARLINK-4033,1 52702U 22053AY  22336.46422554  .00000523  00000-0  50994-4 0  9997,2 52702  53.2185 105.7242 0002122  48.5178 311.5997 15.08833014 30958,6917.901999999999,95.438,541.235,538.299,0.0
52702.0,STARLINK-4033,PAYLOAD,2022-12-02 17:30:02,15.08829044,0.0002131,53.2186,104.5348,48.1244,311.993,6.6259e-06,-1.83e-06,0.0,0 STARLINK-4033,1 52702U 22053AY  22336.72919028 -.00000183  00000-0  66259-5 0  9998,2 52702  53.2186 104.5348 0002131  48.1244 311.9930 15.08829044 30581,6917.9140000000025,95.438,541.253,538.305,0.0
52702.0,STARLINK-4033,PAYLOAD,2022-12-03 01:26:57,15.0883646,0.0002094,53.2187,103.0481,49.3806,310.7368,4.1319e-05,3.69e-06,0.0,0 STARLINK-4033,1 52702U 22053AY  22337.06038550  .00000369  00000-0  41319-4 0  9992,2 52702  53.2187 103.0481 0002094  49.3806 310.7368 15.08836460 30637,6917.891,95.438,541.205,538.308,0.0
52702.0,STARLINK-4033,PAYLOAD,2022-12-03 12:34:39,15.08832996,0.0002016,53.2189,100.9666,50.3629,309.7541,7.434600000000001e-05,8.95e-06,0.0,0 STARLINK-4033,1 52702U 22053AY  22337.52406768  .00000895  00000-0  74346-4 0  9993,2 52702  53.2189 100.9666 0002016  50.3629 309.7541 15.08832996 31114,6917.901999999999,95.438,541.161,538.372,0.0
